QUANTUTONG 1            
1 43158U 18008D   21353.67595045  .00001581  00000+0  95228-4 0  9997
2 43158  97.3806  51.0545 0014738  51.1321  73.5199 15.12110274215929
S-NET D                 
1 43186U 18014G   21353.68973221  .00001536  00000+0  13739-3 0  9998
2 43186  97.6688 257.8283 0011025 171.7632 188.3773 14.97274393212011
S-NET B                 
1 43187U 18014H   21353.68972597  .00001534  00000+0  13723-3 0  9995
2 43187  97.6686 257.7877 0011025 171.7123 188.4283 14.97273749212014
S-NET A                 
1 43188U 18014J   21353.68991335  .00001537  00000+0  13752-3 0  9992
2 43188  97.6689 257.8414 0011018 171.7834 188.3570 14.97272803212015
S-NET C                 
1 43189U 18014K   21353.69043899  .00001542  00000+0  13795-3 0  9990
2 43189  97.6685 257.7793 0011004 171.5756 188.5653 14.97272401210563
FENGMANIU-1 (FMN-1)     
1 43192U 18015A   21353.95041123  .00008505  00000+0  29195-3 0  9999
2 43192  97.5108 130.8008 0012348 309.6693 176.9909 15.30328443215939
SHAONIAN XING           
1 43199U 18015H   21353.94500778  .00005565  00000+0  19915-3 0  9993
2 43199  97.4900 127.1872 0014358 321.1894 187.4401 15.29107630215977
LUOJIA-1 01             
1 43485U 18048B   21353.76372938  .00000291  00000+0  48518-4 0  9995
2 43485  97.9508  72.8441 0012552  63.2413 297.0078 14.76979657191346
SURFSAT                 
1 43614U 18070B   21353.85415971  .00016119  00000+0  34210-3 0  9998
2 43614  93.0218  23.3387 0013547  15.4722 344.6946 15.44908012183260
CP7 (DAVE)              
1 43615U 18070C   21353.58865951  .00011516  00000+0  24812-3 0  9999
2 43615  93.0219  23.1545 0013830  16.6954 343.4755 15.44479623183201
ELFIN-B                 
1 43616U 18070D   21353.81663122  .00021391  00000+0  39079-3 0  9995
2 43616  93.0172  23.7470 0012578  11.2355 348.9183 15.49247778183425
ELFIN-A                 
1 43617U 18070E   21353.83276889  .00025955  00000+0  46085-3 0  9993
2 43617  93.0227  24.8005 0011660   8.5451 351.6006 15.50055206183453
CZ-4B R/B               
1 43656U 18081B   21353.90184928  .00000045  00000+0  31991-4 0  9992
2 43656  99.3766 108.5048 0207705 300.1504  57.9239 14.30496249164688
CUBEBEL-1 (BSUSAT-1)    
1 43666U 18083E   21353.92127461  .00003313  00000+0  15560-3 0  9990
2 43666  97.4403  19.8891 0012679 238.6820 205.6814 15.20252539174185
CHANGSHAGAOXIN (TY 4-01)
1 43669U 18083H   21353.87240890  .00002910  00000+0  14228-3 0  9991
2 43669  97.4327  16.3558 0008952 233.9368 245.4378 15.18980075174029
TEN-KOH                 
1 43677U 18084G   21353.87190125  .00000734  00000+0  80701-4 0  9998
2 43677  97.9420 117.6605 0016894 140.0307 220.2158 14.90624451170924
DIWATA-2B               
1 43678U 18084H   21353.84750232  .00000196  00000+0  25125-4 0  9998
2 43678  97.9465 120.3660 0010561 151.5251 208.6560 14.91851060171079
STARS-AO                
1 43679U 18084J   21353.85580461  .00001443  00000+0  14525-3 0  9992
2 43679  97.9507 121.9039 0009638 157.2961 202.8685 14.92767393171146
AUTCUBE 2               
1 43681U 18084K   21353.87423949  .00000838  00000+0  87729-4 0  9998
2 43681  97.9471 120.8152 0010096 151.8344 208.3423 14.92290577171065
IRVINE01                
1 43693U 18088D   21353.72094675  .00011666  00000+0  42139-3 0  9995
2 43693  85.0341  71.5957 0016837  64.7649 295.5339 15.28199794172701
ES'HAIL 2               
1 43700U 18090A   21353.91121586  .00000164  00000+0  00000+0 0  9998
2 43700   0.0250  12.4584 0002326 281.4432 148.6401  1.00270334 11235
FACSAT-1                
1 43721U 18096C   21353.93335821  .00005723  00000+0  19618-3 0  9993
2 43721  97.3722  69.6746 0015327 338.5409 142.6088 15.30477526170475
CENTAURI-2              
1 43722U 18096D   21353.78608098  .00010257  00000+0  33207-3 0  9994
2 43722  97.3748  70.7743 0014571 336.2222  23.8345 15.32123313170517
3CAT-1                  
1 43728U 18096K   21353.89659522  .00007463  00000+0  24038-3 0  9997
2 43728  97.3763  71.5589 0014990 340.3153 129.6899 15.32384529170563
INNOSAT-2               
1 43738U 18096V   21353.88880435  .00011367  00000+0  31783-3 0  9999
2 43738  97.3827  75.9324 0018200 330.6188 140.9278 15.36675231170843
REAKTOR HELLO WORLD     
1 43743U 18096AA  21353.74684521  .00005742  00000+0  19936-3 0  9994
2 43743  97.3721  69.8224 0015997 344.7873  15.2884 15.30049893170457
ELYSIUM STAR 2 & LFF    
1 43760U 18099C   21353.86707723  .00003778  00000+0  33371-3 0  9995
2 43760  97.6522  61.3367 0014750 142.5569 217.6683 14.96872780166242
2018-099D               
1 43761U 18099D   21353.96952367  .00000445  00000+0  45258-4 0  9999
2 43761  97.6485  60.3204 0014960 144.7038 215.5174 14.95447619166192
AISTECHSAT 2            
1 43768U 18099L   21353.70400978  .00000452  00000+0  46286-4 0  9994
2 43768  97.6426  58.7617 0012216 144.7293 215.4739 14.95108247165824
FOX-1CLIFF (AO-95)      
1 43770U 18099N   21353.72739615  .00001464  00000+0  13674-3 0  9990
2 43770  97.6456  59.6418 0015204 153.3043 206.8964 14.95597961166143
RANGE-A                 
1 43772U 18099Q   21353.64720376  .00001306  00000+0  12139-3 0  9997
2 43772  97.6554  60.8677 0014869 141.4136 218.8151 14.95985142166145
RANGE-B                 
1 43773U 18099R   21353.75016693  .00000950  00000+0  90922-4 0  9991
2 43773  97.6390  58.7883 0014442 140.2205 220.0078 14.95421311166135
2018-099T               
1 43775U 18099T   21353.74396402  .00001180  00000+0  11155-3 0  9997
2 43775  97.6461  59.8486 0015519 144.4058 215.8201 14.95465655166145
MOVE-II                 
1 43780U 18099Y   21353.73887469  .00002443  00000+0  22039-3 0  9996
2 43780  97.6486  60.4301 0014268 148.9765 211.2302 14.96369871166175
SNUSAT-2                
1 43782U 18099AA  21353.73131870  .00001471  00000+0  13663-3 0  9999
2 43782  97.6457  60.0510 0013733 139.4045 220.8203 14.95819919166162
SNUGLITE                
1 43784U 18099AC  21353.72297167  .00001303  00000+0  12113-3 0  9995
2 43784  97.6418  59.7223 0015830 147.3225 212.8979 14.95964484166186
ITASAT 1                
1 43786U 18099AE  21353.74599561  .00001525  00000+0  14120-3 0  9998
2 43786  97.6483  60.4662 0016008 146.0284 214.1966 14.95858630166181
KAZSCISAT-1             
1 43787U 18099AF  21353.66652585  .00002263  00000+0  20377-3 0  9997
2 43787  97.6396  59.5288 0015110 142.9187 217.3082 14.96505314166204
EAGLET-I                
1 43790U 18099AJ  21353.73867171  .00001410  00000+0  13003-3 0  9999
2 43790  97.6472  60.9422 0014315 149.1483 211.0582 14.96171689165910
ESEO                    
1 43792U 18099AL  21353.82355035  .00000484  00000+0  48358-4 0  9994
2 43792  97.6435  60.4561 0014052 145.7055 214.5077 14.95861579165971
CSIM-FD                 
1 43793U 18099AM  21353.72535293  .00001957  00000+0  17457-3 0  9991
2 43793  97.6476  61.1198 0013846 143.6154 216.6012 14.97037399165988
ASTROCAST 0.1           
1 43798U 18099AS  21353.79055875  .00001767  00000+0  16039-3 0  9990
2 43798  97.6476  61.2779 0013382 130.3619 229.8773 14.96479854166237
JY1SAT (JO-97)          
1 43803U 18099AX  21353.74312208  .00001865  00000+0  17027-3 0  9995
2 43803  97.6445  60.2007 0015987 145.6308 214.5951 14.96163844166193
SUOMI-100               
1 43804U 18099AY  21353.75298399  .00001419  00000+0  13088-3 0  9999
2 43804  97.6443  60.1596 0015952 145.6165 214.6092 14.96121470166205
AL-FARABI 2             
1 43805U 18099AZ  21353.92334762  .00000578  00000+0  55915-4 0  9995
2 43805  97.6468  60.6553 0015837 144.8196 215.4074 14.96409349166245
CENTAURI-1              
1 43809U 18099BD  21353.83497512  .00000656  00000+0  63344-4 0  9994
2 43809  97.6453  60.5663 0015813 146.8087 213.4129 14.96056672165918
CHOMPTT                 
1 43855U 18104G   21353.90202864  .00006163  00000+0  24561-3 0  9990
2 43855  85.0357 170.5476 0016586 174.3538 185.7895 15.24866765167346
DAVINCI                 
1 43857U 18104J   21353.89968898  .00022080  00000+0  80434-3 0  9993
2 43857  85.0300 169.8007 0012684 197.9475 162.1324 15.27998378167371
UWE-4                   
1 43880U 18111E   21353.73523016  .00001266  00000+0  11438-3 0  9990
2 43880  97.6776 258.2027 0011626 198.1102 161.9708 14.97183153162802
ZACUBE-2                
1 43907U 18111AH  21353.96176221  .00001958  00000+0  79055-4 0  9995
2 43907  97.2117 241.6608 0021099   1.5274  54.2049 15.25744292165916
MICRODRAGON             
1 43935U 19003D   21353.66691702  .00002826  00000+0  11910-3 0  9990
2 43935  97.1591  26.9534 0019376  91.7611 268.5847 15.23937448162306
AOBA VELOX-IV           
1 43940U 19003J   21353.67625219  .00010191  00000+0  35740-3 0  9998
2 43940  97.1551  30.7839 0022948  71.5939 288.7795 15.29371008162594
M6P                     
1 44109U 19018AF  21353.78402994  .00007053  00000+0  20285-3 0  9998
2 44109  97.4137  71.7340 0054470  52.9362 307.6844 15.34609890151868
FORMOSAT 7-4            
1 44350U 19036M   21353.86912349  .00002255  00000+0  12056-3 0  9991
2 44350  23.9978 177.5168 0006169  99.6674 260.4526 15.08177540136311
PAINANI 1               
1 44365U 19037A   21353.87362001  .00017928  00000+0  38936-3 0  9991
2 44365  45.0042 302.4865 0004789 209.3723 150.6898 15.44155796139402
ACRUX 1                 
1 44369U 19037E   21353.81112789  .00032284  00000+0  49648-3 0  9999
2 44369  45.0037 268.4127 0011395 204.2410 155.7948 15.53644329139755
METEOR-M2 2             
1 44387U 19038A   21353.79963637 -.00000027  00000+0  75066-5 0  9999
2 44387  98.6972 311.2765 0002458  78.5608 281.5852 14.23695378127848
VDNH-80                 
1 44392U 19038G   21353.85278148  .00002752  00000+0  15234-3 0  9993
2 44392  97.6126 318.0992 0021717  36.7986  30.2371 15.14510117135645
D-STAR ONE (LIGHTSAT)   
1 44393U 19038H   21353.84909804  .00006144  00000+0  33588-3 0  9994
2 44393  97.6138 317.9621 0022146  37.0712 323.2044 15.14444216135833
